{"type": "FeatureCollection", "features": [ {"type": "Feature", "properties": {"norad_id": 36707, "name": "FENGYUN 1C DEB", "group": "fengyun-1c-debris", "lat": -23.94196100618375, "lon": -145.00708252345788, "alt_km": 845.7449725663464, "timestamp": "2025-12-18T21:31:51.290216+00:00", "meta": {"OBJECT_NAME": "FENGYUN 1C DEB", "OBJECT_ID": "1999-025EAD", "EPOCH": "2025-12-15T21:24:57.607488", "MEAN_MOTION": 14.17320288, "ECCENTRICITY": 0.00498055, "INCLINATION": 98.7526, "RA_OF_ASC_NODE": 35.9569, "ARG_OF_PERICENTER": 113.0035, "MEAN_ANOMALY": 247.6404, "EPHEMERIS_TYPE": 0, "CLASSIFICATION_TYPE": "U", "NORAD_CAT_ID": 36707, "ELEMENT_SET_NO": 999, "REV_AT_EPOCH": 64124, "BSTAR": 0.00062545572, "MEAN_MOTION_DOT": 1.237e-05, "MEAN_MOTION_DDOT": 0}, "tle": {"line1": "1 36707U 99025EAD 25349.89233342  .00001237  00000+0  62546-3 0  9993", "line2": "2 36707  98.7526  35.9569 0049805 113.0035 247.6404 14.17320288641248"}}, "geometry": {"type": "Point", "coordinates": [-145.00708252345788, -23.94196100618375]}}, {"type": "Feature", "properties": {"norad_id": 36710, "name": "FENGYUN 1C DEB", "group": "fengyun-1c-debris", "lat": 66.18797798403531, "lon": -110.49813778149151, "alt_km": 688.639849040911, "timestamp": "2025-12-18T21:31:51.290226+00:00", "meta": {"OBJECT_NAME": "FENGYUN 1C DEB", "OBJECT_ID": "1999-025EAG", "EPOCH": "2025-12-15T10:11:57.749280", "MEAN_MOTION": 14.49882943, "ECCENTRICITY": 0.00679739, "INCLINATION": 98.3812, "RA_OF_ASC_NODE": 46.5328, "ARG_OF_PERICENTER": 173.535, "MEAN_ANOMALY": 186.6737, "EPHEMERIS_TYPE": 0, "CLASSIFICATION_TYPE": "U", "NORAD_CAT_ID": 36710, "ELEMENT_SET_NO": 999, "REV_AT_EPOCH": 64992, "BSTAR": 0.00098752348, "MEAN_MOTION_DOT": 3.884e-05, "MEAN_MOTION_DDOT": 0}, "tle": {"line1": "1 36710U 99025EAG 25349.42497395  .00003884  00000+0  98752-3 0  9994", "line2": "2 36710  98.3812  46.5328 0067973 173.5350 186.6737 14.49882943649924"}}, "geometry": {"type": "Point", "coordinates": [-110.49813778149151, 66.18797798403531]}}, {"type": "Feature", "properties": {"norad_id": 36711, "name": "FENGYUN 1C DEB", "group": "fengyun-1c-debris", "lat": -5.919375898382125, "lon": -167.3196883861418, "alt_km": 682.7462221402111, "timestamp": "2025-12-18T21:31:51.290236+00:00", "meta": {"OBJECT_NAME": "FENGYUN 1C DEB", "OBJECT_ID": "1999-025EAH", "EPOCH": "2025-12-15T19:25:24.600864", "MEAN_MOTION": 14.42474443, "ECCENTRICITY": 0.01001739, "INCLINATION": 100.8044, "RA_OF_ASC_NODE": 9.912, "ARG_OF_PERICENTER": 199.8566, "MEAN_ANOMALY": 159.8704, "EPHEMERIS_TYPE": 0, "CLASSIFICATION_TYPE": "U", "NORAD_CAT_ID": 36711, "ELEMENT_SET_NO": 999, "REV_AT_EPOCH": 64355, "BSTAR": 0.0014307525, "MEAN_MOTION_DOT": 4.969e-05, "MEAN_MOTION_DDOT": 0}, "tle": {"line1": "1 36711U 99025EAH 25349.80931251  .00004969  00000+0  14308-2 0  9990", "line2": "2 36711 100.8044   9.9120 0100173 199.8566 159.8704 14.42474443643558"}}, "geometry": {"type": "Point", "coordinates": [-167.3196883861418, -5.919375898382125]}}, {"type": "Feature", "properties": {"norad_id": 36716, "name": "FENGYUN 1C DEB", "group": "fengyun-1c-debris", "lat": 69.84641316175689, "lon": 118.1771535359314, "alt_km": 952.4970077949692, "timestamp": "2025-12-18T21:31:51.290246+00:00", "meta": {"OBJECT_NAME": "FENGYUN 1C DEB", "OBJECT_ID": "1999-025EAN", "EPOCH": "2025-12-18T00:14:45.593952", "MEAN_MOTION": 13.8841712, "ECCENTRICITY": 0.01481792, "INCLINATION": 99.2289, "RA_OF_ASC_NODE": 271.0046, "ARG_OF_PERICENTER": 214.5801, "MEAN_ANOMALY": 144.565, "EPHEMERIS_TYPE": 0, "CLASSIFICATION_TYPE": "U", "NORAD_CAT_ID": 36716, "ELEMENT_SET_NO": 999, "REV_AT_EPOCH": 63004, "BSTAR": 0.00018188182, "MEAN_MOTION_DOT": 1.93e-06, "MEAN_MOTION_DDOT": 0}, "tle": {"line1": "1 36716U 99025EAN 25352.01024993  .00000193  00000+0  18188-3 0  9994", "line2": "2 36716  99.2289 271.0046 0148179 214.5801 144.5650 13.88417120630048"}}, "geometry": {"type": "Point", "coordinates": [118.1771535359314, 69.84641316175689]}}, {"type": "Feature", "properties": {"norad_id": 36724, "name": "FENGYUN 1C DEB", "group": "fengyun-1c-debris", "lat": 70.58103722431306, "lon": -3.1339283829082016, "alt_km": 822.0799868423883, "timestamp": "2025-12-18T21:31:51.290257+00:00", "meta": {"OBJECT_NAME": "FENGYUN 1C DEB", "OBJECT_ID": "1999-025EAW", "EPOCH": "2025-12-18T01:06:38.664576", "MEAN_MOTION": 14.25328701, "ECCENTRICITY": 0.01037205, "INCLINATION": 99.4675, "RA_OF_ASC_NODE": 24.1999, "ARG_OF_PERICENTER": 182.8224, "MEAN_ANOMALY": 207.9026, "EPHEMERIS_TYPE": 0, "CLASSIFICATION_TYPE": "U", "NORAD_CAT_ID": 36724, "ELEMENT_SET_NO": 999, "REV_AT_EPOCH": 57548, "BSTAR": 0.0014303066, "MEAN_MOTION_DOT": 3.515e-05, "MEAN_MOTION_DDOT": 0}, "tle": {"line1": "1 36724U 99025EAW 25352.04628084  .00003515  00000+0  14303-2 0  9992", "line2": "2 36724  99.4675  24.1999 0103720 182.8224 207.9026 14.25328701575486"}}, "geometry": {"type": "Point", "coordinates": [-3.1339283829082016, 70.58103722431306]}}, {"type": "Feature", "properties": {"norad_id": 36729, "name": "FENGYUN 1C DEB", "group": "fengyun-1c-debris", "lat": 23.928372773803407, "lon": 158.4060040153049, "alt_km": 853.3694948287994, "timestamp": "2025-12-18T21:31:51.290267+00:00", "meta": {"OBJECT_NAME": "FENGYUN 1C DEB", "OBJECT_ID": "1999-025EBB", "EPOCH": "2025-12-16T04:05:17.827872", "MEAN_MOTION": 14.10320494, "ECCENTRICITY": 0.00453471, "INCLINATION": 98.708, "RA_OF_ASC_NODE": 331.8661, "ARG_OF_PERICENTER": 246.1932, "MEAN_ANOMALY": 113.4481, "EPHEMERIS_TYPE": 0, "CLASSIFICATION_TYPE": "U", "NORAD_CAT_ID": 36729, "ELEMENT_SET_NO": 999, "REV_AT_EPOCH": 87300, "BSTAR": 0.00030652739, "MEAN_MOTION_DOT": 5.06e-06, "MEAN_MOTION_DDOT": 0}, "tle": {"line1": "1 36729U 99025EBB 25350.17034523  .00000506  00000+0  30653-3 0  9992", "line2": "2 36729  98.7080 331.8661 0045347 246.1932 113.4481 14.10320494873007"}}, "geometry": {"type": "Point", "coordinates": [158.4060040153049, 23.928372773803407]}}, {"type": "Feature", "properties": {"norad_id": 36734, "name": "FENGYUN 1C DEB", "group": "fengyun-1c-debris", "lat": -77.50959413036473, "lon": 173.9439191346873, "alt_km": 799.3427291951402, "timestamp": "2025-12-18T21:31:51.290277+00:00", "meta": {"OBJECT_NAME": "FENGYUN 1C DEB", "OBJECT_ID": "1999-025EBG", "EPOCH": "2025-12-18T01:47:05.053056", "MEAN_MOTION": 14.25897297, "ECCENTRICITY": 0.00364903, "INCLINATION": 99.0559, "RA_OF_ASC_NODE": 39.1461, "ARG_OF_PERICENTER": 204.3184, "MEAN_ANOMALY": 155.6274, "EPHEMERIS_TYPE": 0, "CLASSIFICATION_TYPE": "U", "NORAD_CAT_ID": 36734, "ELEMENT_SET_NO": 999, "REV_AT_EPOCH": 82810, "BSTAR": 0.0013415374, "MEAN_MOTION_DOT": 3.171e-05, "MEAN_MOTION_DDOT": 0}, "tle": {"line1": "1 36734U 99025EBG 25352.07436404  .00003171  00000+0  13415-2 0  9990", "line2": "2 36734  99.0559  39.1461 0036490 204.3184 155.6274 14.25897297828103"}}, "geometry": {"type": "Point", "coordinates": [173.9439191346873, -77.50959413036473]}}, {"type": "Feature", "properties": {"norad_id": 36736, "name": "FENGYUN 1C DEB", "group": "fengyun-1c-debris", "lat": -9.384313267425252, "lon": 67.8519222075466, "alt_km": 839.9770771178046, "timestamp": "2025-12-18T21:31:51.290287+00:00", "meta": {"OBJECT_NAME": "FENGYUN 1C DEB", "OBJECT_ID": "1999-025EBJ", "EPOCH": "2025-12-17T11:53:03.561504", "MEAN_MOTION": 14.25503808, "ECCENTRICITY": 0.00608931, "INCLINATION": 98.8065, "RA_OF_ASC_NODE": 64.9763, "ARG_OF_PERICENTER": 126.7147, "MEAN_ANOMALY": 233.9647, "EPHEMERIS_TYPE": 0, "CLASSIFICATION_TYPE": "U", "NORAD_CAT_ID": 36736, "ELEMENT_SET_NO": 999, "REV_AT_EPOCH": 88683, "BSTAR": 0.0013401294, "MEAN_MOTION_DOT": 3.186e-05, "MEAN_MOTION_DDOT": 0}, "tle": {"line1": "1 36736U 99025EBJ 25351.49518011  .00003186  00000+0  13401-2 0  9993", "line2": "2 36736  98.8065  64.9763 0060893 126.7147 233.9647 14.25503808886835"}}, "geometry": {"type": "Point", "coordinates": [67.8519222075466, -9.384313267425252]}}, {"type": "Feature", "properties": {"norad_id": 36743, "name": "FENGYUN 1C DEB", "group": "fengyun-1c-debris", "lat": 75.18870395721746, "lon": -103.7048310320796, "alt_km": 797.4066177516952, "timestamp": "2025-12-18T21:31:51.290297+00:00", "meta": {"OBJECT_NAME": "FENGYUN 1C DEB", "OBJECT_ID": "1999-025EBR", "EPOCH": "2025-12-15T20:48:16.336800", "MEAN_MOTION": 14.29116099, "ECCENTRICITY": 0.0047177, "INCLINATION": 98.6557, "RA_OF_ASC_NODE": 38.1117, "ARG_OF_PERICENTER": 3.5743, "MEAN_ANOMALY": 356.5766, "EPHEMERIS_TYPE": 0, "CLASSIFICATION_TYPE": "U", "NORAD_CAT_ID": 36743, "ELEMENT_SET_NO": 999, "REV_AT_EPOCH": 60782, "BSTAR": 0.00095050245, "MEAN_MOTION_DOT": 2.395e-05, "MEAN_MOTION_DDOT": 0}, "tle": {"line1": "1 36743U 99025EBR 25349.86685575  .00002395  00000+0  95050-3 0  9991", "line2": "2 36743  98.6557  38.1117 0047177   3.5743 356.5766 14.29116099607827"}}, "geometry": {"type": "Point", "coordinates": [-103.7048310320796, 75.18870395721746]}}, {"type": "Feature", "properties": {"norad_id": 36986, "name": "FENGYUN 1C DEB", "group": "fengyun-1c-debris", "lat": 77.92292295397499, "lon": -72.11275485753741, "alt_km": 873.4935546914267, "timestamp": "2025-12-18T21:31:51.290307+00:00", "meta": {"OBJECT_NAME": "FENGYUN 1C DEB", "OBJECT_ID": "1999-025EBS", "EPOCH": "2025-12-15T03:05:39.285888", "MEAN_MOTION": 14.14607907, "ECCENTRICITY": 0.00875693, "INCLINATION": 99.1452, "RA_OF_ASC_NODE": 55.1898, "ARG_OF_PERICENTER": 235.0252, "MEAN_ANOMALY": 124.2675, "EPHEMERIS_TYPE": 0, "CLASSIFICATION_TYPE": "U", "NORAD_CAT_ID": 36986, "ELEMENT_SET_NO": 999, "REV_AT_EPOCH": 81778, "BSTAR": 0.0016913625, "MEAN_MOTION_DOT": 3.326e-05, "MEAN_MOTION_DDOT": 0}, "tle": {"line1": "1 36986U 99025EBS 25349.12892692  .00003326  00000+0  16914-2 0  9995", "line2": "2 36986  99.1452  55.1898 0087569 235.0252 124.2675 14.14607907817781"}}, "geometry": {"type": "Point", "coordinates": [-72.11275485753741, 77.92292295397499]}}]}